[{"OBJECT_NAME":"NOAA 18","OBJECT_ID":"2005-018A","EPOCH":"2026-03-16T19:57:35.364384","MEAN_MOTION":14.13712282,"ECCENTRICITY":0.0015095,"INCLINATION":98.8146,"RA_OF_ASC_NODE":156.8385,"ARG_OF_PERICENTER":56.4728,"MEAN_ANOMALY":303.7884,"EPHEMERIS_TYPE":0,"CLASSIFICATION_TYPE":"U","NORAD_CAT_ID":28654,"ELEMENT_SET_NO":999,"REV_AT_EPOCH":7326,"BSTAR":4.8656e-5,"MEAN_MOTION_DOT":4.8e-7,"MEAN_MOTION_DDOT":0},{"OBJECT_NAME":"NOAA 19","OBJECT_ID":"2009-005A","EPOCH":"2026-03-16T19:32:19.186080","MEAN_MOTION":14.13458103,"ECCENTRICITY":0.0012733,"INCLINATION":98.9593,"RA_OF_ASC_NODE":146.5967,"ARG_OF_PERICENTER":293.0602,"MEAN_ANOMALY":66.9227,"EPHEMERIS_TYPE":0,"CLASSIFICATION_TYPE":"U","NORAD_CAT_ID":33591,"ELEMENT_SET_NO":999,"REV_AT_EPOCH":88143,"BSTAR":5.1624e-5,"MEAN_MOTION_DOT":5.2e-7,"MEAN_MOTION_DDOT":0},{"OBJECT_NAME":"SUOMI NPP","OBJECT_ID":"2011-061A","EPOCH":"2026-03-16T19:00:03.697344","MEAN_MOTION":14.19545647,"ECCENTRICITY":7.93e-5,"INCLINATION":98.7878,"RA_OF_ASC_NODE":17.3384,"ARG_OF_PERICENTER":189.4453,"MEAN_ANOMALY":170.6708,"EPHEMERIS_TYPE":0,"CLASSIFICATION_TYPE":"U","NORAD_CAT_ID":37849,"ELEMENT_SET_NO":999,"REV_AT_EPOCH":74533,"BSTAR":5.889e-5,"MEAN_MOTION_DOT":8.0e-7,"MEAN_MOTION_DDOT":0},{"OBJECT_NAME":"NOAA 20 (JPSS-1)","OBJECT_ID":"2017-073A","EPOCH":"2026-03-16T19:21:14.964480","MEAN_MOTION":14.19538048,"ECCENTRICITY":0.0001498,"INCLINATION":98.77,"RA_OF_ASC_NODE":16.1231,"ARG_OF_PERICENTER":128.1948,"MEAN_ANOMALY":231.9363,"EPHEMERIS_TYPE":0,"CLASSIFICATION_TYPE":"U","NORAD_CAT_ID":43013,"ELEMENT_SET_NO":999,"REV_AT_EPOCH":43136,"BSTAR":5.8177e-5,"MEAN_MOTION_DOT":7.9e-7,"MEAN_MOTION_DDOT":0}]
