NOAA 18                 
1 28654U 05018A   26075.83165931  .00000048  00000+0  48656-4 0  9999
2 28654  98.8146 156.8385 0015095  56.4728 303.7884 14.13712282 73263
NOAA 19                 
1 33591U 09005A   26075.81411095  .00000052  00000+0  51624-4 0  9992
2 33591  98.9593 146.5967 0012733 293.0602  66.9227 14.13458103881438
SUOMI NPP               
1 37849U 11061A   26075.79170946  .00000080  00000+0  58890-4 0  9994
2 37849  98.7878  17.3384 0000793 189.4453 170.6708 14.19545647745336
NOAA 20 (JPSS-1)        
1 43013U 17073A   26075.80642320  .00000079  00000+0  58177-4 0  9991
2 43013  98.7700  16.1231 0001498 128.1948 231.9363 14.19538048431360
